LYNK TOWER 6            
1 59123U 24043AB  26068.89488777  .00011440  00000+0  40142-3 0  9996
2 59123  97.5426 204.1954 0009749 232.0253 128.0107 15.29548678111845
STARLINK-35342          
1 66181U 25243E   26068.70709801  .00022539  00000+0  77067-3 0  9992
2 66181  53.1573 245.3681 0001088  48.9697 311.1397 15.30205220 20655
